{"epoch":1784762836,"count":18316,"objects":[{"id":"40364","name":"ASTRA 2G","type":"PAYLOAD","l1":"1 40364U 14089A   26203.47722087  .00000153  00000-0  00000-0 0  9998","l2":"2 40364   0.0627  41.2406 0004596  38.1676  60.7786  1.00272669 42324"},{"id":"40367","name":"FENGYUN 2G","type":"PAYLOAD","l1":"1 40367U 14090A   26203.63397087 -.00000304  00000-0  00000-0 0  9998","l2":"2 40367   5.7264  72.3849 0003696 171.6646  24.0860  1.00278507 42358"},{"id":"40374","name":"MUOS 3","type":"PAYLOAD","l1":"1 40374U 15002A   26203.32612802 -.00000129  00000-0  00000-0 0  9996","l2":"2 40374   4.5865  43.6470 0054082 177.0539 181.2793  1.00273129 41936"},{"id":"40384","name":"INMARSAT 5-F2","type":"PAYLOAD","l1":"1 40384U 15005A   26203.46084080 -.00000282  00000-0  00000-0 0  9996","l2":"2 40384   0.0181  59.9804 0000732  59.8990 291.2352  1.00272713 41347"},{"id":"40424","name":"ABS 3A","type":"PAYLOAD","l1":"1 40424U 15010A   26203.07614079 -.00000024  00000-0  00000-0 0  9995","l2":"2 40424   0.0125  56.9793 0001461  27.0448 240.2551  1.00270166 41726"},{"id":"40425","name":"EUTE 115 WEST B(SATMEX 7","type":"PAYLOAD","l1":"1 40425U 15010B   26203.48655935 -.00000022  00000-0  00000-0 0  9995","l2":"2 40425   0.0035 118.7900 0000269 235.2473   6.4545  1.00275060 41734"},{"id":"40505","name":"EXPRESS AM-7","type":"PAYLOAD","l1":"1 40505U 15012A   26203.47956088  .00000154  00000-0  00000-0 0  9993","l2":"2 40505   0.0126 355.1630 0003068 136.1008  21.6123  1.00277337 41363"},{"id":"40549","name":"BD-17","type":"PAYLOAD","l1":"1 40549U 15019A   26194.62309473 -.00000169  00000-0  00000-0 0  9991","l2":"2 40549  49.1434 295.1438 0038658 197.4315 114.4487  1.00301762 41331"},{"id":"40613","name":"THOR 7","type":"PAYLOAD","l1":"1 40613U 15022A   26203.32907471 -.00000005  00000-0  00000-0 0  9996","l2":"2 40613   0.0058 226.3383 0002800 251.0531 300.4937  1.00270907 41167"},{"id":"40617","name":"TURKMENALEM 52E/MONACOSA","type":"PAYLOAD","l1":"1 40617U 15023A   26203.48198756  .00000107  00000-0  00000-0 0  9998","l2":"2 40617   0.0140  80.8977 0002918  43.1083  41.7732  1.00275293 41203"},{"id":"40663","name":"DIRECTV 15","type":"PAYLOAD","l1":"1 40663U 15026A   26203.45139407 -.00000099  00000-0  00000-0 0  9998","l2":"2 40663   0.0213  79.4820 0000670 295.6184 344.7143  1.00274904 40811"},{"id":"40664","name":"SKY MEXICO-1","type":"PAYLOAD","l1":"1 40664U 15026B   26203.45616076 -.00000231  00000-0  00000-0 0  9999","l2":"2 40664   0.0162 311.1102 0002709 183.6480 250.8562  1.00270581 40802"},{"id":"40732","name":"METEOSAT 11 (MSG 4)","type":"PAYLOAD","l1":"1 40732U 15034A   26203.33098138  .00000063  00000-0  00000-0 0  9996","l2":"2 40732   3.2862  70.8805 0001987 355.6013   2.0313  1.00274087  7561"},{"id":"40733","name":"STARONE C4","type":"PAYLOAD","l1":"1 40733U 15034B   26203.45789411 -.00000262  00000-0  00000-0 0  9993","l2":"2 40733   0.0426 302.0600 0001698 148.2935 304.6894  1.00272536 40361"},{"id":"40746","name":"WGS 7 (USA 263)","type":"PAYLOAD","l1":"1 40746U 15036A   26203.53308565  .00000021  00000-0  00000-0 0  9997","l2":"2 40746   0.0163  54.0607 0000306 116.4340 136.6917  1.00269546 40227"},{"id":"40874","name":"INTELSAT 34","type":"PAYLOAD","l1":"1 40874U 15039A   26203.46075413 -.00000282  00000-0  00000-0 0  9997","l2":"2 40874   0.0090 359.5645 0000592  40.3887  10.6325  1.00270805 39986"},{"id":"40875","name":"EUTE 8 WEST B","type":"PAYLOAD","l1":"1 40875U 15039B   26203.32760137 -.00000062  00000-0  00000-0 0  9993","l2":"2 40875   0.0632   4.1205 0003708 111.9411 293.9474  1.00271535 40001"},{"id":"40880","name":"GSAT 6","type":"PAYLOAD","l1":"1 40880U 15041A   26203.41678311 -.00000159  00000-0  00000-0 0  9991","l2":"2 40880   2.0069  82.1446 0002901  36.6266  53.9580  1.00272134 39951"},{"id":"40882","name":"INMARSAT 5-F3","type":"PAYLOAD","l1":"1 40882U 15042A   26203.53308565  .00000054  00000-0  00000-0 0  9991","l2":"2 40882   0.0181  60.7078 0000659 102.2551 148.8173  1.00271353 39925"},{"id":"40887","name":"MUOS 4","type":"PAYLOAD","l1":"1 40887U 15044A   26203.48666758 -.00000092  00000-0  00000-0 0  9996","l2":"2 40887   4.3948  42.4314 0056455   3.8937 144.0867  1.00272251 39912"},{"id":"40892","name":"TJS-1","type":"PAYLOAD","l1":"1 40892U 15046A   26203.57375692 -.00000153  00000-0  00000-0 0  9996","l2":"2 40892   0.4121  84.7524 0005295  22.3246 194.8119  1.00271419 39924"},{"id":"40938","name":"BD-20","type":"PAYLOAD","l1":"1 40938U 15053A   26203.63249753 -.00000089  00000-0  00000-0 0  9998","l2":"2 40938  49.1658 258.3562 0065894 193.8013 168.7106  1.00252107 39714"},{"id":"40940","name":"SKY MUSTER","type":"PAYLOAD","l1":"1 40940U 15054A   26203.52197340  .00000000  00000-0  00000-0 0  9996","l2":"2 40940   0.0118  35.2969 0001791  78.3870 154.7580  1.00271125 39612"},{"id":"40941","name":"ARSAT 2","type":"PAYLOAD","l1":"1 40941U 15054B   26203.45572743 -.00000221  00000-0  00000-0 0  9999","l2":"2 40941   0.0473 271.5062 0002276 195.9992 275.7565  1.00272120 39653"},{"id":"40946","name":"MORELOS 3","type":"PAYLOAD","l1":"1 40946U 15056A   26203.48655935 -.00000041  00000-0  00000-0 0  9994","l2":"2 40946   3.2164  15.9589 0000728 174.4369 171.8990  1.00271881 39633"},{"id":"40982","name":"APSTAR 9","type":"PAYLOAD","l1":"1 40982U 15059A   26203.64246424 -.00000262  00000-0  00000-0 0  9999","l2":"2 40982   0.0510 280.9778 0003571 260.8881 131.8007  1.00270429 39479"},{"id":"40984","name":"TURKSAT 4B","type":"PAYLOAD","l1":"1 40984U 15060A   26203.48164089  .00000119  00000-0  00000-0 0  9991","l2":"2 40984   0.0259 283.6932 0002279 186.8890  52.9969  1.00271180 39457"},{"id":"41021","name":"CHINASAT 2C","type":"PAYLOAD","l1":"1 41021U 15063A   26203.46503353 -.00000320  00000-0  00000-0 0  9991","l2":"2 41021   0.3626  88.4725 0008242  99.6731  22.8966  1.00269206 39339"},{"id":"41028","name":"GSAT 15","type":"PAYLOAD","l1":"1 41028U 15065A   26203.49027009 -.00000254  00000-0  00000-0 0  9998","l2":"2 41028   0.0994 263.2486 0003606 179.4604 127.5282  1.00271481 39155"},{"id":"41029","name":"BADR 7","type":"PAYLOAD","l1":"1 41029U 15065B   26203.47678753  .00000148  00000-0  00000-0 0  9996","l2":"2 41029   0.0393 222.0731 0004820 340.9240 294.8360  1.00271898 39129"}]}