OBJECT_NAME,OBJECT_ID,EPOCH,MEAN_MOTION,ECCENTRICITY,INCLINATION,RA_OF_ASC_NODE,ARG_OF_PERICENTER,MEAN_ANOMALY,EPHEMERIS_TYPE,CLASSIFICATION_TYPE,NORAD_CAT_ID,ELEMENT_SET_NO,REV_AT_EPOCH,BSTAR,MEAN_MOTION_DOT,MEAN_MOTION_DDOT
ASTRA 2G,2014-089A,2026-07-22T11:27:11.883168,1.00272669,.00045964,0.0627,41.2406,38.1676,60.7786,0,U,40364,999,4232,0,.153E-5,0
FENGYUN 2G,2014-090A,2026-07-22T15:12:55.083168,1.00278507,.00036961,5.7264,72.3849,171.6646,24.0860,0,U,40367,999,4235,0,-.304E-5,0
MUOS-3,2015-002A,2026-07-22T07:49:37.460928,1.00273129,.00540822,4.5865,43.6470,177.0539,181.2793,0,U,40374,999,4193,0,-.129E-5,0
INMARSAT 5-F2,2015-005A,2026-07-22T11:03:36.645120,1.00272713,.00007317,0.0181,59.9804,59.8990,291.2352,0,U,40384,999,4134,0,-.282E-5,0
ABS-3A,2015-010A,2026-07-22T01:49:38.564256,1.00270166,.00014608,0.0125,56.9793,27.0448,240.2551,0,U,40424,999,4172,0,-.24E-6,0
EUTELSAT 115 WEST B,2015-010B,2026-07-22T11:40:38.727840,1.00275060,.00002692,0.0035,118.7900,235.2473,6.4545,0,U,40425,999,4173,0,-.22E-6,0
EXPRESS-AM7,2015-012A,2026-07-22T11:30:34.060032,1.00277337,.00030676,0.0126,355.1630,136.1008,21.6123,0,U,40505,999,4136,0,.154E-5,0
BEIDOU-3S IGSO-1S,2015-019A,2026-07-13T14:57:15.384672,1.00301762,.00386582,49.1434,295.1438,197.4315,114.4487,0,U,40549,999,4133,0,-.169E-5,0
THOR 7,2015-022A,2026-07-22T07:53:52.054944,1.00270907,.00027998,0.0058,226.3383,251.0531,300.4937,0,U,40613,999,4116,0,-.5E-7,0
TURKMENALEM52E/MONACOSAT,2015-023A,2026-07-22T11:34:03.725184,1.00275293,.0002918,0.0140,80.8977,43.1083,41.7732,0,U,40617,999,4120,0,.107E-5,0
DIRECTV 15,2015-026A,2026-07-22T10:50:00.447648,1.00274904,.00006697,0.0213,79.4820,295.6184,344.7143,0,U,40663,999,4081,0,-.99E-6,0
SKY MEXICO-1,2015-026B,2026-07-22T10:56:52.289664,1.00270581,.00027094,0.0162,311.1102,183.6480,250.8562,0,U,40664,999,4080,0,-.231E-5,0
METEOSAT-11 (MSG-4),2015-034A,2026-07-22T07:56:36.791232,1.00274087,.0001987,3.2862,70.8805,355.6013,2.0313,0,U,40732,999,756,0,.63E-6,0
STAR ONE C4,2015-034B,2026-07-22T10:59:22.051104,1.00272536,.00016976,0.0426,302.0600,148.2935,304.6894,0,U,40733,999,4036,0,-.262E-5,0
WGS F7 (USA 263),2015-036A,2026-07-22T12:47:38.600160,1.00269546,.00003061,0.0163,54.0607,116.4340,136.6917,0,U,40746,999,4022,0,.21E-6,0
INTELSAT 34 (IS-34),2015-039A,2026-07-22T11:03:29.156832,1.00270805,.00005924,0.0090,359.5645,40.3887,10.6325,0,U,40874,999,3998,0,-.282E-5,0
EUTELSAT 8 WEST B,2015-039B,2026-07-22T07:51:44.758368,1.00271535,.00037078,0.0632,4.1205,111.9411,293.9474,0,U,40875,999,4000,0,-.62E-6,0
GSAT-6,2015-041A,2026-07-22T10:00:10.060704,1.00272134,.00029013,2.0069,82.1446,36.6266,53.9580,0,U,40880,999,3995,0,-.159E-5,0
INMARSAT 5-F3,2015-042A,2026-07-22T12:47:38.600160,1.00271353,.00006587,0.0181,60.7078,102.2551,148.8173,0,U,40882,999,3992,0,.54E-6,0
MUOS-4,2015-044A,2026-07-22T11:40:48.078912,1.00272251,.0056455,4.3948,42.4314,3.8937,144.0867,0,U,40887,999,3991,0,-.92E-6,0
TJS-1,2015-046A,2026-07-22T13:46:12.597888,1.00271419,.00052945,0.4121,84.7524,22.3246,194.8119,0,U,40892,999,3992,0,-.153E-5,0
BEIDOU-3S IGSO-2S,2015-053A,2026-07-22T15:10:47.786592,1.00252107,.0065894,49.1658,258.3562,193.8013,168.7106,0,U,40938,999,3971,0,-.89E-6,0
SKY MUSTER 1 (NBN1A),2015-054A,2026-07-22T12:31:38.501760,1.00271125,.00017909,0.0118,35.2969,78.3870,154.7580,0,U,40940,999,3961,0,0,0
ARSAT 2,2015-054B,2026-07-22T10:56:14.849952,1.00272120,.00022763,0.0473,271.5062,195.9992,275.7565,0,U,40941,999,3965,0,-.221E-5,0
MORELOS 3,2015-056A,2026-07-22T11:40:38.727840,1.00271881,.00007278,3.2164,15.9589,174.4369,171.8990,0,U,40946,999,3963,0,-.41E-6,0
APSTAR-9,2015-059A,2026-07-22T15:25:08.910336,1.00270429,.00035715,0.0510,280.9778,260.8881,131.8007,0,U,40982,999,3947,0,-.262E-5,0
TURKSAT 4B,2015-060A,2026-07-22T11:33:33.772896,1.00271180,.0002279,0.0259,283.6932,186.8890,52.9969,0,U,40984,999,3945,0,.119E-5,0
ZHONGXING-2C,2015-063A,2026-07-22T11:09:38.896992,1.00269206,.00082418,0.3626,88.4725,99.6731,22.8966,0,U,41021,999,3933,0,-.32E-5,0
GSAT-15,2015-065A,2026-07-22T11:45:59.335776,1.00271481,.00036062,0.0994,263.2486,179.4604,127.5282,0,U,41028,999,3915,0,-.254E-5,0
BADR-7 (ARABSAT-6B),2015-065B,2026-07-22T11:26:34.442592,1.00271898,.00048202,0.0393,222.0731,340.9240,294.8360,0,U,41029,999,3912,0,.148E-5,0
